NORAD_CAT_ID,OBJECT_NAME,OBJECT_TYPE,EPOCH,MEAN_MOTION,ECCENTRICITY,INCLINATION,RA_OF_ASC_NODE,ARG_OF_PERICENTER,MEAN_ANOMALY,BSTAR,MEAN_MOTION_DOT,MEAN_MOTION_DDOT,TLE_LINE0,TLE_LINE1,TLE_LINE2,SEMIMAJOR_AXIS,PERIOD,APOGEE,PERIGEE,DECAYED
52553.0,STARLINK-3858,PAYLOAD,2024-05-13 12:28:40,15.08877011,0.0001327,53.2158,234.8382,98.9026,261.2116,0.0016558,0.00026189,0.0,0 STARLINK-3858,1 52553U 22051W   24134.51990941  .00026189  00000-0  16558-2 0  9995,2 52553  53.2158 234.8382 0001327  98.9026 261.2116 15.08877011111036,6917.767,95.435,540.55,538.714,0.0
52553.0,STARLINK-3858,PAYLOAD,2024-05-13 15:39:26,15.08884148,0.0001328,53.2157,234.2435,98.4813,261.6329,0.0017155,0.00027153,0.0,0 STARLINK-3858,1 52553U 22051W   24134.65238585  .00027153  00000-0  17155-2 0  9995,2 52553  53.2157 234.2435 0001328  98.4813 261.6329 15.08884148111059,6917.745,95.435,540.529,538.692,0.0
52553.0,STARLINK-3858,PAYLOAD,2024-05-14 12:19:25,15.0888781,0.0002115,53.2159,230.3777,139.2951,220.82,0.00091338,0.00014297,0.0,0 STARLINK-3858,1 52553U 22051W   24135.51348706  .00014297  00000-0  91338-3 0  9999,2 52553  53.2159 230.3777 0002115 139.2951 220.8200 15.08887810111255,6917.734,95.435,541.062,538.136,0.0
52553.0,STARLINK-3858,PAYLOAD,2024-05-14 23:27:07,15.08860316,0.0001777,53.2153,228.2956,91.3655,268.7541,0.0010856,0.00017041,0.0,0 STARLINK-3858,1 52553U 22051W   24135.97716902  .00017041  00000-0  10856-2 0  9991,2 52553  53.2153 228.2956 0001777  91.3655 268.7541 15.08860316111325,6917.818,95.436,540.913,538.454,0.0
52553.0,STARLINK-3858,PAYLOAD,2024-05-15 12:10:12,15.08844942,0.0001623,53.2164,225.9152,99.5789,260.5387,0.00058298,9.004e-05,0.0,0 STARLINK-3858,1 52553U 22051W   24136.50708969  .00009004  00000-0  58298-3 0  9998,2 52553  53.2164 225.9152 0001623  99.5789 260.5387 15.08844942111401,6917.865,95.437,540.853,538.608,0.0
52553.0,STARLINK-3858,PAYLOAD,2024-05-15 13:45:35,15.08846916,0.0001512,53.2158,225.6182,102.6235,257.4926,0.00081281,0.00012674,0.0,0 STARLINK-3858,1 52553U 22051W   24136.57332950  .00012674  00000-0  81281-3 0  9993,2 52553  53.2158 225.6182 0001512 102.6235 257.4926 15.08846916111343,6917.859,95.437,540.77,538.678,0.0
52553.0,STARLINK-3858,PAYLOAD,2024-05-15 15:20:58,15.08854489,0.0001561,53.2158,225.3187,111.056,249.0599,0.0012777,0.00020113,0.0,0 STARLINK-3858,1 52553U 22051W   24136.63956824  .00020113  00000-0  12777-2 0  9992,2 52553  53.2158 225.3187 0001561 111.0560 249.0599 15.08854489111352,6917.836,95.437,540.781,538.621,0.0
52553.0,STARLINK-3858,PAYLOAD,2024-05-16 12:00:59,15.08860663,0.0001631,53.2162,221.4522,111.5246,248.592,0.0011283,0.00017725,0.0,0 STARLINK-3858,1 52553U 22051W   24137.50069006  .00017725  00000-0  11283-2 0  9992,2 52553  53.2162 221.4522 0001631 111.5246 248.5920 15.08860663111556,6917.817,95.436,540.811,538.554,0.0
52553.0,STARLINK-3858,PAYLOAD,2024-05-16 23:08:41,15.08858789,0.0001696,53.2163,219.3723,100.3759,259.7424,0.00082568,0.00012884,0.0,0 STARLINK-3858,1 52553U 22051W   24137.96436762  .00012884  00000-0  82568-3 0  9995,2 52553  53.2163 219.3723 0001696 100.3759 259.7424 15.08858789111629,6917.823,95.436,540.861,538.515,0.0
52553.0,STARLINK-3858,PAYLOAD,2024-05-17 11:51:46,15.08856038,0.0001695,53.2176,216.994,100.5295,259.5888,0.00051077,7.854e-05,0.0,0 STARLINK-3858,1 52553U 22051W   24138.49428270  .00007854  00000-0  51077-3 0  9991,2 52553  53.2176 216.9940 0001695 100.5295 259.5888 15.08856038111709,6917.831,95.437,540.869,538.524,0.0
52553.0,STARLINK-3858,PAYLOAD,2024-05-18 11:42:32,15.08861589,0.0001592,53.2173,212.5339,77.6706,282.4464,0.00040257,6.128e-05,0.0,0 STARLINK-3858,1 52553U 22051W   24139.48787804  .00006128  00000-0  40257-3 0  9993,2 52553  53.2173 212.5339 0001592  77.6706 282.4464 15.08861589111855,6917.814,95.436,540.781,538.578,0.0
52553.0,STARLINK-3858,PAYLOAD,2024-05-18 21:14:52,15.08823364,0.0002035,53.2175,210.7495,76.8219,283.3,-0.00044172,-7.308e-05,0.0,0 STARLINK-3858,1 52553U 22051W   24139.88532870 -.00007308  00000-0 -44172-3 0  9991,2 52553  53.2175 210.7495 0002035  76.8219 283.3000 15.08823364111915,6917.931,95.439,541.204,538.388,0.0
52553.0,STARLINK-3858,PAYLOAD,2024-05-19 11:33:21,15.08812565,0.0001619,53.2169,208.076,94.6438,265.4739,-0.00036702,-6.12e-05,0.0,0 STARLINK-3858,1 52553U 22051W   24140.48149784 -.00006120  00000-0 -36702-3 0  9998,2 52553  53.2169 208.0760 0001619  94.6438 265.4739 15.08812565111934,6917.964,95.439,540.949,538.709,0.0
52553.0,STARLINK-3858,PAYLOAD,2024-05-20 09:48:45,15.08839699,0.0001514,53.216,203.9102,76.897,283.2191,0.00039514,6.006e-05,0.0,0 STARLINK-3858,1 52553U 22051W   24141.40885940  .00006006  00000-0  39514-3 0  9997,2 52553  53.2160 203.9102 0001514  76.8970 283.2191 15.08839699112147,6917.881,95.438,540.794,538.699,0.0
52553.0,STARLINK-3858,PAYLOAD,2024-05-20 14:34:54,15.08853963,0.0001582,53.2163,203.0179,96.9421,263.1751,0.00070337,0.00010928,0.0,0 STARLINK-3858,1 52553U 22051W   24141.60757531  .00010928  00000-0  70337-3 0  9999,2 52553  53.2163 203.0179 0001582  96.9421 263.1751 15.08853963112109,6917.838,95.437,540.797,538.608,0.0
52553.0,STARLINK-3858,PAYLOAD,2024-05-21 03:17:59,15.08842784,0.0002911,53.216,200.6321,143.4092,216.7099,0.00015278,2.144e-05,0.0,0 STARLINK-3858,1 52553U 22051W   24142.13749640  .00002144  00000-0  15278-3 0  9994,2 52553  53.2160 200.6321 0002911 143.4092 216.7099 15.08842784112251,6917.872,95.437,541.751,537.723,0.0
52553.0,STARLINK-3858,PAYLOAD,2024-05-21 09:39:32,15.08844357,0.000235,53.2159,199.444,143.8671,216.248,0.00019398,2.801e-05,0.0,0 STARLINK-3858,1 52553U 22051W   24142.40245480  .00002801  00000-0  19398-3 0  9994,2 52553  53.2159 199.4440 0002350 143.8671 216.2480 15.08844357112224,6917.867,95.437,541.358,538.106,0.0
52553.0,STARLINK-3858,PAYLOAD,2024-05-22 03:08:47,15.08840802,0.000148,53.2158,196.1803,77.6254,282.4904,-0.00010221,-1.914e-05,0.0,0 STARLINK-3858,1 52553U 22051W   24143.13110091 -.00001914  00000-0 -10221-3 0  9996,2 52553  53.2158 196.1803 0001480  77.6254 282.4904 15.08840802112401,6917.878,95.438,540.767,538.719,0.0
52553.0,STARLINK-3858,PAYLOAD,2024-05-22 09:30:19,15.08841581,0.0001578,53.2158,194.9915,67.486,292.6299,5.1437e-07,-2.8e-06,0.0,0 STARLINK-3858,1 52553U 22051W   24143.39606146 -.00000280  00000-0  51437-6 0  9996,2 52553  53.2158 194.9915 0001578  67.4860 292.6299 15.08841581112370,6917.876,95.437,540.832,538.649,0.0
52553.0,STARLINK-3858,PAYLOAD,2024-05-23 09:21:06,15.08844324,0.0001687,53.2154,190.5312,64.6246,295.4921,0.0002444,3.604e-05,0.0,0 STARLINK-3858,1 52553U 22051W   24144.38966272  .00003604  00000-0  24440-3 0  9998,2 52553  53.2154 190.5312 0001687  64.6246 295.4921 15.08844324112592,6917.867,95.437,540.899,538.565,0.0
52553.0,STARLINK-3858,PAYLOAD,2024-05-24 12:22:39,15.0885398,0.0001451,53.2146,185.4746,87.3981,272.7177,0.00027414,4.079e-05,0.0,0 STARLINK-3858,1 52553U 22051W   24145.51573377  .00004079  00000-0  27414-3 0  9995,2 52553  53.2146 185.4746 0001451  87.3981 272.7177 15.08853980112762,6917.838,95.437,540.706,538.699,0.0
52553.0,STARLINK-3858,PAYLOAD,2024-05-24 20:19:35,15.08844324,0.0001568,53.2146,183.9807,136.9654,223.1461,9.5883e-05,1.238e-05,0.0,0 STARLINK-3858,1 52553U 22051W   24145.84693407  .00001238  00000-0  95883-4 0  9998,2 52553  53.2146 183.9807 0001568 136.9654 223.1461 15.08844324112814,6917.867,95.437,540.817,538.647,0.0
52553.0,STARLINK-3858,PAYLOAD,2024-05-25 09:02:40,15.08835309,0.000153,53.2164,181.6101,94.9576,265.159,-5.0897e-05,-1.098e-05,0.0,0 STARLINK-3858,1 52553U 22051W   24146.37686213 -.00001098  00000-0 -50897-4 0  9996,2 52553  53.2164 181.6101 0001530  94.9576 265.1590 15.08835309112891,6917.895,95.438,540.818,538.701,0.0
52553.0,STARLINK-3858,PAYLOAD,2024-05-26 08:53:27,15.08841464,0.0001308,53.2162,177.1495,91.1914,268.9228,4.7143e-05,4.62e-06,0.0,0 STARLINK-3858,1 52553U 22051W   24147.37046061  .00000462  00000-0  47143-4 0  9990,2 52553  53.2162 177.1495 0001308  91.1914 268.9228 15.08841464112970,6917.876,95.437,540.646,538.836,0.0
52553.0,STARLINK-3858,PAYLOAD,2024-05-26 18:25:35,15.09070968,0.0002748,53.2165,175.3739,250.6466,109.4229,0.0034961,0.00056153,0.0,0 STARLINK-3858,1 52553U 22051W   24147.76777697  .00056153  00000-0  34961-2 0  9999,2 52553  53.2165 175.3739 0002748 250.6466 109.4229 15.09070968113107,6917.175,95.423,540.94,537.139,0.0
52553.0,STARLINK-3858,PAYLOAD,2024-05-27 00:47:10,15.0897111,0.0001789,53.2185,174.1854,78.1228,281.9965,0.0012038,0.00018991,0.0,0 STARLINK-3858,1 52553U 22051W   24148.03275740  .00018991  00000-0  12038-2 0  9991,2 52553  53.2185 174.1854 0001789  78.1228 281.9965 15.08971110113142,6917.48,95.429,540.582,538.107,0.0
52553.0,STARLINK-3858,PAYLOAD,2024-05-27 13:30:24,15.08834262,0.0001327,53.2165,171.7961,95.2149,264.8995,0.00011722,1.578e-05,0.0,0 STARLINK-3858,1 52553U 22051W   24148.56278748  .00001578  00000-0  11722-3 0  9993,2 52553  53.2165 171.7961 0001327  95.2149 264.8995 15.08834262113220,6917.898,95.438,540.681,538.845,0.0
52553.0,STARLINK-3858,PAYLOAD,2024-05-27 18:16:34,15.08835198,0.0001328,53.2164,170.9042,93.5668,266.5476,0.00010902,1.447e-05,0.0,0 STARLINK-3858,1 52553U 22051W   24148.76150773  .00001447  00000-0  10902-3 0  9996,2 52553  53.2164 170.9042 0001328  93.5668 266.5476 15.08835198113185,6917.895,95.438,540.679,538.841,0.0
52553.0,STARLINK-3858,PAYLOAD,2024-05-28 08:35:02,15.08842034,0.0001318,53.2164,168.2276,94.0633,266.051,0.00011031,1.468e-05,0.0,0 STARLINK-3858,1 52553U 22051W   24149.35766373  .00001468  00000-0  11031-3 0  9998,2 52553  53.2164 168.2276 0001318  94.0633 266.0510 15.08842034113272,6917.874,95.437,540.651,538.827,0.0
52553.0,STARLINK-3858,PAYLOAD,2024-05-29 10:01:12,15.08841449,0.0001303,53.2163,163.4696,95.1632,264.9509,9.9937e-05,1.303e-05,0.0,0 STARLINK-3858,1 52553U 22051W   24150.41750385  .00001303  00000-0  99937-4 0  9993,2 52553  53.2163 163.4696 0001303  95.1632 264.9509 15.08841449113509,6917.876,95.437,540.642,538.84,0.0
